[{"OBJECT_NAME":"SENTINEL-3B","OBJECT_ID":"2018-039A","EPOCH":"2026-03-09T22:56:26.429280","MEAN_MOTION":14.26736439,"ECCENTRICITY":9.653e-5,"INCLINATION":98.6227,"RA_OF_ASC_NODE":137.8858,"ARG_OF_PERICENTER":127.5232,"MEAN_ANOMALY":232.6036,"EPHEMERIS_TYPE":0,"CLASSIFICATION_TYPE":"U","NORAD_CAT_ID":43437,"ELEMENT_SET_NO":999,"REV_AT_EPOCH":40997,"BSTAR":7.6183716e-5,"MEAN_MOTION_DOT":1.41e-6,"MEAN_MOTION_DDOT":0},{"OBJECT_NAME":"NOAA 16 DEB","OBJECT_ID":"2000-055AE","EPOCH":"2026-03-09T19:43:44.250816","MEAN_MOTION":14.29254397,"ECCENTRICITY":0.00089973,"INCLINATION":98.812,"RA_OF_ASC_NODE":175.9794,"ARG_OF_PERICENTER":270.073,"MEAN_ANOMALY":89.942,"EPHEMERIS_TYPE":0,"CLASSIFICATION_TYPE":"U","NORAD_CAT_ID":41071,"ELEMENT_SET_NO":999,"REV_AT_EPOCH":53168,"BSTAR":0.0018148103,"MEAN_MOTION_DOT":4.573e-5,"MEAN_MOTION_DDOT":0}]
